COSMOS 2433 [GLONASS-M] 
1 32275U 07052A   26136.00612854 -.00000028  00000+0  00000+0 0  9996
2 32275  65.5957 317.0165 0001561 187.3531 172.6516  2.13104036144379
COSMOS 2432 [GLONASS-M] 
1 32276U 07052B   26137.29828111 -.00000033  00000+0  00000+0 0  9990
2 32276  65.6108 317.1008 0008478 336.7414 238.5571  2.13103202144423
COSMOS 2434 [GLONASS-M] 
1 32393U 07065A   26138.12313759  .00000069  00000+0  00000+0 0  9992
2 32393  64.3157 192.9296 0001039  15.7425  58.3480  2.13101438143136
COSMOS 2436 [GLONASS-M] 
1 32395U 07065C   26133.26899799  .00000072  00000+0  00000+0 0  9991
2 32395  64.3244 193.1651 0017150 356.7973  85.8341  2.13100439142983
COSMOS 2456 [GLONASS-M] 
1 36111U 09070A   26136.14426103 -.00000017  00000+0  00000+0 0  9994
2 36111  64.9939  72.0645 0005709 321.2388 192.6933  2.13103747127748
COSMOS 2457 [GLONASS-M] 
1 36112U 09070B   26137.35495286 -.00000017  00000+0  00000+0 0  9997
2 36112  64.9798  71.8682 0001589 141.4873 348.9421  2.13101153127773
COSMOS 2460 [GLONASS-M] 
1 36402U 10007C   26136.70942285 -.00000031  00000+0  00000+0 0  9991
2 36402  65.4389 315.5319 0002205  80.0171 277.1198  2.13106192126059
COSMOS 2476 [GLONASS-M] 
1 37867U 11064A   26138.12803503 -.00000012  00000+0  00000+0 0  9997
2 37867  65.2542  73.8857 0023555 241.1828 262.9765  2.13103791113123
COSMOS 2477 [GLONASS-M] 
1 37868U 11064B   26135.60158355 -.00000013  00000+0  00000+0 0  9997
2 37868  65.2589  74.0503 0020707 242.8968 303.4831  2.13103039113068
COSMOS 2475 [GLONASS-M] 
1 37869U 11064C   26133.53746779 -.00000003  00000+0  00000+0 0  9990
2 37869  65.2651  74.1407 0026804 255.0346 103.0905  2.13101916113027
COSMOS 2485 [GLONASS-M] 
1 39155U 13019A   26136.93884259 -.00000013  00000+0  00000+0 0  9996
2 39155  65.4034  74.6527 0023930 236.5180 123.2327  2.13103279101617
COSMOS 2500 [GLONASS-M] 
1 40001U 14032A   26133.78320435 -.00000016  00000+0  00000+0 0  9998
2 40001  65.2537 314.8550 0006428 181.4566 178.5543  2.13106574 92724
COSMOS 2501 [GLONASS-K] 
1 40315U 14075A   26132.63703521  .00000068  00000+0  00000+0 0  9993
2 40315  63.6143 191.6025 0022142 210.7482 149.1999  2.13101550 89093
COSMOS 2514 [GLONASS-M] 
1 41330U 16008A   26137.78327392 -.00000034  00000+0  00000+0 0  9992
2 41330  65.0406 314.0497 0010172 196.8770 163.0846  2.13102523 79970
COSMOS 2522 [GLONASS-M] 
1 42939U 17055A   26138.09043036  .00000069  00000+0  00000+0 0  9993
2 42939  64.0766 192.9085 0010015 237.9521 122.0386  2.13101927 67335
COSMOS 2527 [GLONASS-M] 
1 43508U 18053A   26130.54369296  .00000017  00000+0  00000+0 0  9999
2 43508  65.5577  75.1624 0008142 246.5326 113.3712  2.13102285 61475
COSMOS 2529 [GLONASS-M] 
1 43687U 18086A   26137.67938184  .00000073  00000+0  00000+0 0  9994
2 43687  64.2929 193.6244 0011217 256.0168 103.9476  2.13102075 58634
COSMOS 2534 [GLONASS-M] 
1 44299U 19030A   26137.13200311  .00000079  00000+0  00000+0 0  9995
2 44299  64.3664 193.6622 0012672 275.7727 158.8051  2.13102301 54261
COSMOS 2545 [GLONASS-M] 
1 45358U 20018A   26135.84549925 -.00000029  00000+0  00000+0 0  9999
2 45358  64.3753 313.5554 0007490 233.4064 126.5264  2.13102449 47972
COSMOS 2547 [GLONASS-K] 
1 46805U 20075A   26136.03478387  .00000085  00000+0  00000+0 0  9996
2 46805  64.5980 193.5508 0008894 241.7969 118.2028  2.13102438 43222
COSMOS 2557 [GLONASS-K] 
1 52984U 22075A   26133.38373156 -.00000017  00000+0  00000+0 0  9992
2 52984  64.3189 315.7114 0010072 279.0223  80.8784  2.13102035 29977
COSMOS 2559 [GLONASS-K] 
1 54031U 22130A   26135.08031582 -.00000026  00000+0  00000+0 0  9992
2 54031  64.2912 315.7357 0011733 176.0930 183.9248  2.13101469 27989
COSMOS 2564 [GLONASS-M] 
1 54377U 22161A   26137.27001747  .00000078  00000+0  00000+0 0  9998
2 54377  64.7394 193.7378 0011641 222.5180 137.4815  2.13101942 26978
COSMOS 2569 [GLONASS-K2]
1 57517U 23114A   26137.28236791 -.00000014  00000+0  00000+0 0  9997
2 57517  65.2857  73.6621 0011793 296.3835  63.4767  2.13103643 21607
COSMOS 2584 [GLONASS-K2]
1 63130U 25042A   26137.63851066 -.00000013  00000+0  00000+0 0  9993
2 63130  65.0681  73.8401 0006205 233.7243 126.2004  2.13103688  9399
COSMOS 2596 [GLONASS-K1]
1 65590U 25206B   26137.30119471 -.00000035  00000+0  00000+0 0  9992
2 65590  64.6536 316.0604 0011223 315.3902 262.4505  2.13100394  5258
